start=new Date('2021-12-04T00:00:00.000Z').valueOf();
sats=[{"ELEMENT_SET_NO":"999","CENTER_NAME":"EARTH","OBJECT_ID":"2020-012AC","SITE":"AFETR","MEAN_ANOMALY":"280.8490","NORAD_CAT_ID":"45204","ARG_OF_PERICENTER":"79.2747","RA_OF_ASC_NODE":"176.9572","EPOCH":"2021-12-03T12:46:02.984736","DECAY_DATE":null,"REV_AT_EPOCH":"9948","TLE_LINE1":"1 45204U 20012AC  21337.53197899  .00001406  00000-0  11328-3 0  9996","APOAPSIS":"548.750","CLASSIFICATION_TYPE":"U","RCS_SIZE":"LARGE","PERIAPSIS":"545.693","LAUNCH_DATE":"2020-02-17","MEAN_MOTION_DOT":"0.00001406","BSTAR":"0.00011328000000","FILE":"3231632","ECCENTRICITY":"0.00022070","MEAN_MOTION":"15.06397428","MEAN_ELEMENT_THEORY":"SGP4","TIME_SYSTEM":"UTC","PERIOD":"95.592","OBJECT_NAME":"STARLINK-1206","EPHEMERIS_TYPE":"0","COUNTRY_CODE":"US","TLE_LINE2":"2 45204  53.0533 176.9572 0002207  79.2747 280.8490 15.06397428 99486","GP_ID":"190987211","SEMIMAJOR_AXIS":"6925.356","INCLINATION":"53.0533","OBJECT_TYPE":"PAYLOAD","MEAN_MOTION_DDOT":"0.0000000000000","REF_FRAME":"TEME"},{"ECCENTRICITY":"0.00015390","MEAN_MOTION":"15.06392518","CLASSIFICATION_TYPE":"U","APOAPSIS":"548.302","RCS_SIZE":"LARGE","LAUNCH_DATE":"2020-02-17","MEAN_MOTION_DOT":"0.00000880","PERIAPSIS":"546.171","FILE":"3231632","BSTAR":"0.00007800000000","ARG_OF_PERICENTER":"89.7236","RA_OF_ASC_NODE":"176.8656","EPOCH":"2021-12-03T13:17:54.265056","DECAY_DATE":null,"REV_AT_EPOCH":"9949","TLE_LINE1":"1 45205U 20012AD  21337.55410029  .00000880  00000-0  78000-4 0  9998","ELEMENT_SET_NO":"999","CENTER_NAME":"EARTH","OBJECT_ID":"2020-012AD","SITE":"AFETR","NORAD_CAT_ID":"45205","MEAN_ANOMALY":"270.3929","MEAN_MOTION_DDOT":"0.0000000000000","REF_FRAME":"TEME","SEMIMAJOR_AXIS":"6925.371","OBJECT_TYPE":"PAYLOAD","INCLINATION":"53.0530","OBJECT_NAME":"STARLINK-1208","EPHEMERIS_TYPE":"0","COUNTRY_CODE":"US","TLE_LINE2":"2 45205  53.0530 176.8656 0001539  89.7236 270.3929 15.06392518 99499","GP_ID":"190987219","MEAN_ELEMENT_THEORY":"SGP4","PERIOD":"95.593","TIME_SYSTEM":"UTC"},{"SEMIMAJOR_AXIS":"6925.384","INCLINATION":"53.0525","OBJECT_TYPE":"PAYLOAD","MEAN_MOTION_DDOT":"0.0000000000000","REF_FRAME":"TEME","MEAN_ELEMENT_THEORY":"SGP4","TIME_SYSTEM":"UTC","PERIOD":"95.593","EPHEMERIS_TYPE":"0","OBJECT_NAME":"STARLINK-1209","COUNTRY_CODE":"US","TLE_LINE2":"2 45206  53.0525 155.5687 0001975  76.3299 283.7910 15.06388347 99793","GP_ID":"191036010","APOAPSIS":"548.617","CLASSIFICATION_TYPE":"U","LAUNCH_DATE":"2020-02-17","MEAN_MOTION_DOT":"-0.00001256","PERIAPSIS":"545.882","RCS_SIZE":"LARGE","FILE":"3231910","BSTAR":"-0.00006546400000","ECCENTRICITY":"0.00019750","MEAN_MOTION":"15.06388347","ELEMENT_SET_NO":"999","CENTER_NAME":"EARTH","OBJECT_ID":"2020-012AE","MEAN_ANOMALY":"283.7910","NORAD_CAT_ID":"45206","SITE":"AFETR","EPOCH":"2021-12-03T20:19:52.052736","RA_OF_ASC_NODE":"155.5687","ARG_OF_PERICENTER":"76.3299","REV_AT_EPOCH":"9979","DECAY_DATE":null,"TLE_LINE1":"1 45206U 20012AE  21337.84713024 -.00001256  00000-0 -65464-4 0  9992"},{"MEAN_MOTION_DDOT":"0.0000000000000","REF_FRAME":"TEME","INCLINATION":"53.0535","OBJECT_TYPE":"PAYLOAD","SEMIMAJOR_AXIS":"6925.300","TLE_LINE2":"2 45207  53.0535 176.4689 0002135  89.6256 270.4977 15.06415900100434","GP_ID":"191037260","EPHEMERIS_TYPE":"0","OBJECT_NAME":"STARLINK-1210","COUNTRY_CODE":"US","PERIOD":"95.591","TIME_SYSTEM":"UTC","MEAN_ELEMENT_THEORY":"SGP4","MEAN_MOTION":"15.06415900","ECCENTRICITY":"0.00021350","FILE":"3231910","BSTAR":"0.00021382000000","CLASSIFICATION_TYPE":"U","APOAPSIS":"548.643","PERIAPSIS":"545.686","LAUNCH_DATE":"2020-02-17","MEAN_MOTION_DOT":"0.00002906","RCS_SIZE":"LARGE","REV_AT_EPOCH":"10043","DECAY_DATE":null,"TLE_LINE1":"1 45207U 20012AF  21337.64253497  .00002906  00000-0  21382-3 0  9995","RA_OF_ASC_NODE":"176.4689","EPOCH":"2021-12-03T15:25:15.021408","ARG_OF_PERICENTER":"89.6256","OBJECT_ID":"2020-012AF","NORAD_CAT_ID":"45207","MEAN_ANOMALY":"270.4977","SITE":"AFETR","ELEMENT_SET_NO":"999","CENTER_NAME":"EARTH"},{"REF_FRAME":"TEME","MEAN_MOTION_DDOT":"0.0000000000000","SEMIMAJOR_AXIS":"6927.832","OBJECT_TYPE":"PAYLOAD","INCLINATION":"52.9986","COUNTRY_CODE":"US","EPHEMERIS_TYPE":"0","OBJECT_NAME":"STARLINK-1211","GP_ID":"191009557","TLE_LINE2":"2 45208  52.9986 178.0194 0002171  82.4816 277.6418 15.05589923100294","MEAN_ELEMENT_THEORY":"SGP4","TIME_SYSTEM":"UTC","PERIOD":"95.644","ECCENTRICITY":"0.00021710","MEAN_MOTION":"15.05589923","PERIAPSIS":"548.193","LAUNCH_DATE":"2020-02-17","MEAN_MOTION_DOT":"0.00000946","RCS_SIZE":"LARGE","APOAPSIS":"551.201","CLASSIFICATION_TYPE":"U","FILE":"3231740","BSTAR":"0.00008411500000","RA_OF_ASC_NODE":"178.0194","EPOCH":"2021-12-03T07:08:08.657088","ARG_OF_PERICENTER":"82.4816","TLE_LINE1":"1 45208U 20012AG  21337.29732242  .00000946  00000-0  84115-4 0  9993","REV_AT_EPOCH":"10029","DECAY_DATE":null,"CENTER_NAME":"EARTH","ELEMENT_SET_NO":"999","MEAN_ANOMALY":"277.6418","NORAD_CAT_ID":"45208","SITE":"AFETR","OBJECT_ID":"2020-012AG"},{"PERIOD":"91.331","TIME_SYSTEM":"UTC","MEAN_ELEMENT_THEORY":"SGP4","TLE_LINE2":"2 45209  53.0515 101.1164 0001918  38.6771 321.4385 15.76684631101450","GP_ID":"191035760","EPHEMERIS_TYPE":"0","OBJECT_NAME":"STARLINK-1218","COUNTRY_CODE":"US","INCLINATION":"53.0515","OBJECT_TYPE":"PAYLOAD","SEMIMAJOR_AXIS":"6717.979","MEAN_MOTION_DDOT":"0.0000000000000","REF_FRAME":"TEME","OBJECT_ID":"2020-012AH","MEAN_ANOMALY":"321.4385","NORAD_CAT_ID":"45209","SITE":"AFETR","ELEMENT_SET_NO":"999","CENTER_NAME":"EARTH","REV_AT_EPOCH":"10145","DECAY_DATE":null,"TLE_LINE1":"1 45209U 20012AH  21337.84391976 -.00001979  00000-0 -81028-5 0  9990","EPOCH":"2021-12-03T20:15:14.667264","RA_OF_ASC_NODE":"101.1164","ARG_OF_PERICENTER":"38.6771","FILE":"3231910","BSTAR":"-0.00000810280000","APOAPSIS":"341.132","CLASSIFICATION_TYPE":"U","LAUNCH_DATE":"2020-02-17","MEAN_MOTION_DOT":"-0.00001979","PERIAPSIS":"338.555","RCS_SIZE":"LARGE","MEAN_MOTION":"15.76684631","ECCENTRICITY":"0.00019180"},{"RCS_SIZE":"LARGE","LAUNCH_DATE":"2020-02-17","MEAN_MOTION_DOT":"-0.00000222","PERIAPSIS":"545.704","CLASSIFICATION_TYPE":"U","APOAPSIS":"548.755","FILE":"3231910","BSTAR":"0.00000403200000","ECCENTRICITY":"0.00022030","MEAN_MOTION":"15.06394844","CENTER_NAME":"EARTH","ELEMENT_SET_NO":"999","SITE":"AFETR","MEAN_ANOMALY":"276.7602","NORAD_CAT_ID":"45210","OBJECT_ID":"2020-012AJ","ARG_OF_PERICENTER":"83.3638","EPOCH":"2021-12-03T17:06:07.375104","RA_OF_ASC_NODE":"176.1700","TLE_LINE1":"1 45210U 20012AJ  21337.71258536 -.00000222  00000-0  40320-5 0  9991","DECAY_DATE":null,"REV_AT_EPOCH":"10033","SEMIMAJOR_AXIS":"6925.364","INCLINATION":"53.0542","OBJECT_TYPE":"PAYLOAD","REF_FRAME":"TEME","MEAN_MOTION_DDOT":"0.0000000000000","MEAN_ELEMENT_THEORY":"SGP4","PERIOD":"95.592","TIME_SYSTEM":"UTC","COUNTRY_CODE":"US","OBJECT_NAME":"STARLINK-1219","EPHEMERIS_TYPE":"0","GP_ID":"191036510","TLE_LINE2":"2 45210  53.0542 176.1700 0002203  83.3638 276.7602 15.06394844100334"},{"ARG_OF_PERICENTER":"80.0457","EPOCH":"2021-12-03T16:18:22.078944","RA_OF_ASC_NODE":"176.3128","TLE_LINE1":"1 45212U 20012AL  21337.67942221  .00000692  00000-0  65401-4 0  9995","DECAY_DATE":null,"REV_AT_EPOCH":"10039","CENTER_NAME":"EARTH","ELEMENT_SET_NO":"999","SITE":"AFETR","MEAN_ANOMALY":"280.0775","NORAD_CAT_ID":"45212","OBJECT_ID":"2020-012AL","ECCENTRICITY":"0.00021550","MEAN_MOTION":"15.06392762","RCS_SIZE":"LARGE","PERIAPSIS":"545.743","LAUNCH_DATE":"2020-02-17","MEAN_MOTION_DOT":"0.00000692","APOAPSIS":"548.728","CLASSIFICATION_TYPE":"U","BSTAR":"0.00006540100000","FILE":"3231910","COUNTRY_CODE":"US","OBJECT_NAME":"STARLINK-1231","EPHEMERIS_TYPE":"0","GP_ID":"191036761","TLE_LINE2":"2 45212  53.0524 176.3128 0002155  80.0457 280.0775 15.06392762100393","MEAN_ELEMENT_THEORY":"SGP4","PERIOD":"95.593","TIME_SYSTEM":"UTC","REF_FRAME":"TEME","MEAN_MOTION_DDOT":"0.0000000000000","SEMIMAJOR_AXIS":"6925.371","OBJECT_TYPE":"PAYLOAD","INCLINATION":"53.0524"},{"GP_ID":"191010057","TLE_LINE2":"2 45213  53.0543 176.9036 0001692  59.2912 300.8244 15.06397115100421","COUNTRY_CODE":"US","EPHEMERIS_TYPE":"0","OBJECT_NAME":"STARLINK-1232","PERIOD":"95.592","TIME_SYSTEM":"UTC","MEAN_ELEMENT_THEORY":"SGP4","REF_FRAME":"TEME","MEAN_MOTION_DDOT":"0.0000000000000","INCLINATION":"53.0543","OBJECT_TYPE":"PAYLOAD","SEMIMAJOR_AXIS":"6925.357","TLE_LINE1":"1 45213U 20012AM  21337.55041030  .00001587  00000-0  12541-3 0  9991","REV_AT_EPOCH":"10042","DECAY_DATE":null,"EPOCH":"2021-12-03T13:12:35.449920","RA_OF_ASC_NODE":"176.9036","ARG_OF_PERICENTER":"59.2912","NORAD_CAT_ID":"45213","MEAN_ANOMALY":"300.8244","SITE":"AFETR","OBJECT_ID":"2020-012AM","CENTER_NAME":"EARTH","ELEMENT_SET_NO":"999","MEAN_MOTION":"15.06397115","ECCENTRICITY":"0.00016920","BSTAR":"0.00012541000000","FILE":"3231740","LAUNCH_DATE":"2020-02-17","PERIAPSIS":"546.051","MEAN_MOTION_DOT":"0.00001587","RCS_SIZE":"LARGE","APOAPSIS":"548.394","CLASSIFICATION_TYPE":"U"},{"OBJECT_ID":"2020-012AN","NORAD_CAT_ID":"45214","MEAN_ANOMALY":"279.1722","SITE":"AFETR","ELEMENT_SET_NO":"999","CENTER_NAME":"EARTH","REV_AT_EPOCH":"10042","DECAY_DATE":null,"TLE_LINE1":"1 45214U 20012AN  21337.58727215 -.00000822  00000-0 -36261-4 0  9990","RA_OF_ASC_NODE":"176.7153","EPOCH":"2021-12-03T14:05:40.313760","ARG_OF_PERICENTER":"80.9489","FILE":"3231740","BSTAR":"-0.00003626100000","APOAPSIS":"548.600","CLASSIFICATION_TYPE":"U","LAUNCH_DATE":"2020-02-17","PERIAPSIS":"545.877","MEAN_MOTION_DOT":"-0.00000822","RCS_SIZE":"LARGE","MEAN_MOTION":"15.06391792","ECCENTRICITY":"0.00019660","TIME_SYSTEM":"UTC","PERIOD":"95.593","MEAN_ELEMENT_THEORY":"SGP4","TLE_LINE2":"2 45214  53.0532 176.7153 0001966  80.9489 279.1722 15.06391792100426","GP_ID":"191009808","EPHEMERIS_TYPE":"0","OBJECT_NAME":"STARLINK-1233","COUNTRY_CODE":"US","INCLINATION":"53.0532","OBJECT_TYPE":"PAYLOAD","SEMIMAJOR_AXIS":"6925.374","MEAN_MOTION_DDOT":"0.0000000000000","REF_FRAME":"TEME"}];
